STARLINK-1597           
1 46142U 20057AB  25231.08795411 -.00000572  00000+0 -19530-4 0  9996
2 46142  53.0542 146.1343 0001481  92.1583 267.9575 15.06391979276187
STARLINK-1606           
1 46144U 20057AD  25230.98659186  .00000978  00000+0  84534-4 0  9998
2 46144  53.0554 126.5889 0001489 101.4171 258.6985 15.06394165276467
STARLINK-1608           
1 46146U 20057AF  25231.03266841  .00000242  00000+0  35158-4 0  9991
2 46146  53.0544 146.3836 0001507  93.7318 266.3843 15.06384828276180
STARLINK-1629           
1 46150U 20057AK  25231.10128257  .00042913  00000+0  13597-2 0  9994
2 46150  53.0374 129.1827 0004160  30.1666 329.9573 15.32321823276433
STARLINK-1636           
1 46153U 20057AN  25231.58335648  .00292257  00000+0  17431-2 0  9992
2 46153  53.0195  67.2558 0005201 169.2590 145.2284 15.76530894277333
STARLINK-1642           
1 46154U 20057AP  25231.58335648  .01655701  00000+0  68106-1 0  9995
2 46154  53.0552 133.5372 0000725 143.7764 150.3857 15.20768598276401
STARLINK-1667           
1 46155U 20057AQ  25230.94962225  .00037143  00000+0  16589-2 0  9994
2 46155  53.0531 102.1286 0004210 148.0904 212.0347 15.21019990277375
STARLINK-1545           
1 46156U 20057AR  25230.98290296  .00002110  00000+0  16060-3 0  9992
2 46156  53.0567 126.6028 0001346 122.8113 237.3006 15.06383343276469
STARLINK-1587           
1 46157U 20057AS  25230.97000397  .00000879  00000+0  77898-4 0  9990
2 46157  53.0551 106.6615 0001571  88.7160 271.4009 15.06393418276731
STARLINK-1595           
1 46159U 20057AU  25231.07320837 -.00000448  00000+0 -11193-4 0  9998
2 46159  53.0534 146.2033 0001436  91.8703 268.2450 15.06399509276186
STARLINK-1598           
1 46160U 20057AV  25230.99765252  .00000654  00000+0  62834-4 0  9999
2 46160  53.0542 126.5373 0001546  95.2849 264.8316 15.06387353276464
STARLINK-1612           
1 46164U 20057AZ  25231.05192603  .00048996  00000+0  19549-2 0  9999
2 46164  53.0498 100.8166 0002691 170.3603 189.7446 15.24717368276820
STARLINK-1626           
1 46167U 20057BC  25231.04003733  .00000147  00000+0  28785-4 0  9996
2 46167  53.0536 146.3490 0001561  94.7392 265.3775 15.06392386276184
STARLINK-1627           
1 46168U 20057BD  25230.95250682  .00001236  00000+0  10185-3 0  9997
2 46168  53.0546  96.8270 0001397  88.8475 271.2674 15.06398506276201
STARLINK-1628           
1 46169U 20057BE  25230.97580224  .00083389  00000+0  74941-3 0  9997
2 46169  53.0437  66.7319 0001630 301.9903  58.0954 15.67558178277209
STARLINK-1633           
1 46171U 20057BG  25230.88339481  .00007664  00000+0  53283-3 0  9995
2 46171  53.0533 127.0506 0001602  99.6111 260.5059 15.06401844277036
