[{"OBJECT_NAME":"STARLINK-1597","OBJECT_ID":"2020-057AB","EPOCH":"2025-08-19T02:06:39.235104","MEAN_MOTION":15.06391979,"ECCENTRICITY":0.0001481,"INCLINATION":53.0542,"RA_OF_ASC_NODE":146.1343,"ARG_OF_PERICENTER":92.1583,"MEAN_ANOMALY":267.9575,"EPHEMERIS_TYPE":0,"CLASSIFICATION_TYPE":"U","NORAD_CAT_ID":46142,"ELEMENT_SET_NO":999,"REV_AT_EPOCH":27618,"BSTAR":-1.953e-5,"MEAN_MOTION_DOT":-5.72e-6,"MEAN_MOTION_DDOT":0},{"OBJECT_NAME":"STARLINK-1606","OBJECT_ID":"2020-057AD","EPOCH":"2025-08-18T23:40:41.536704","MEAN_MOTION":15.06394165,"ECCENTRICITY":0.0001489,"INCLINATION":53.0554,"RA_OF_ASC_NODE":126.5889,"ARG_OF_PERICENTER":101.4171,"MEAN_ANOMALY":258.6985,"EPHEMERIS_TYPE":0,"CLASSIFICATION_TYPE":"U","NORAD_CAT_ID":46144,"ELEMENT_SET_NO":999,"REV_AT_EPOCH":27646,"BSTAR":8.4534e-5,"MEAN_MOTION_DOT":9.78e-6,"MEAN_MOTION_DDOT":0},{"OBJECT_NAME":"STARLINK-1608","OBJECT_ID":"2020-057AF","EPOCH":"2025-08-19T00:47:02.550624","MEAN_MOTION":15.06384828,"ECCENTRICITY":0.0001507,"INCLINATION":53.0544,"RA_OF_ASC_NODE":146.3836,"ARG_OF_PERICENTER":93.7318,"MEAN_ANOMALY":266.3843,"EPHEMERIS_TYPE":0,"CLASSIFICATION_TYPE":"U","NORAD_CAT_ID":46146,"ELEMENT_SET_NO":999,"REV_AT_EPOCH":27618,"BSTAR":3.5158e-5,"MEAN_MOTION_DOT":2.42e-6,"MEAN_MOTION_DDOT":0},{"OBJECT_NAME":"STARLINK-1629","OBJECT_ID":"2020-057AK","EPOCH":"2025-08-19T02:25:50.814048","MEAN_MOTION":15.32321823,"ECCENTRICITY":0.000416,"INCLINATION":53.0374,"RA_OF_ASC_NODE":129.1827,"ARG_OF_PERICENTER":30.1666,"MEAN_ANOMALY":329.9573,"EPHEMERIS_TYPE":0,"CLASSIFICATION_TYPE":"U","NORAD_CAT_ID":46150,"ELEMENT_SET_NO":999,"REV_AT_EPOCH":27643,"BSTAR":0.0013597,"MEAN_MOTION_DOT":0.00042913,"MEAN_MOTION_DDOT":0},{"OBJECT_NAME":"STARLINK-1636","OBJECT_ID":"2020-057AN","EPOCH":"2025-08-19T14:00:01.999872","MEAN_MOTION":15.76530894,"ECCENTRICITY":0.0005201,"INCLINATION":53.0195,"RA_OF_ASC_NODE":67.2558,"ARG_OF_PERICENTER":169.259,"MEAN_ANOMALY":145.2284,"EPHEMERIS_TYPE":0,"CLASSIFICATION_TYPE":"U","NORAD_CAT_ID":46153,"ELEMENT_SET_NO":999,"REV_AT_EPOCH":27733,"BSTAR":0.0017431,"MEAN_MOTION_DOT":0.00292257,"MEAN_MOTION_DDOT":0},{"OBJECT_NAME":"STARLINK-1642","OBJECT_ID":"2020-057AP","EPOCH":"2025-08-19T14:00:01.999872","MEAN_MOTION":15.20768598,"ECCENTRICITY":7.25e-5,"INCLINATION":53.0552,"RA_OF_ASC_NODE":133.5372,"ARG_OF_PERICENTER":143.7764,"MEAN_ANOMALY":150.3857,"EPHEMERIS_TYPE":0,"CLASSIFICATION_TYPE":"U","NORAD_CAT_ID":46154,"ELEMENT_SET_NO":999,"REV_AT_EPOCH":27640,"BSTAR":0.068106,"MEAN_MOTION_DOT":0.01655701,"MEAN_MOTION_DDOT":0},{"OBJECT_NAME":"STARLINK-1667","OBJECT_ID":"2020-057AQ","EPOCH":"2025-08-18T22:47:27.362400","MEAN_MOTION":15.2101999,"ECCENTRICITY":0.000421,"INCLINATION":53.0531,"RA_OF_ASC_NODE":102.1286,"ARG_OF_PERICENTER":148.0904,"MEAN_ANOMALY":212.0347,"EPHEMERIS_TYPE":0,"CLASSIFICATION_TYPE":"U","NORAD_CAT_ID":46155,"ELEMENT_SET_NO":999,"REV_AT_EPOCH":27737,"BSTAR":0.0016589,"MEAN_MOTION_DOT":0.00037143,"MEAN_MOTION_DDOT":0},{"OBJECT_NAME":"STARLINK-1545","OBJECT_ID":"2020-057AR","EPOCH":"2025-08-18T23:35:22.815744","MEAN_MOTION":15.06383343,"ECCENTRICITY":0.0001346,"INCLINATION":53.0567,"RA_OF_ASC_NODE":126.6028,"ARG_OF_PERICENTER":122.8113,"MEAN_ANOMALY":237.3006,"EPHEMERIS_TYPE":0,"CLASSIFICATION_TYPE":"U","NORAD_CAT_ID":46156,"ELEMENT_SET_NO":999,"REV_AT_EPOCH":27646,"BSTAR":0.0001606,"MEAN_MOTION_DOT":2.11e-5,"MEAN_MOTION_DDOT":0},{"OBJECT_NAME":"STARLINK-1587","OBJECT_ID":"2020-057AS","EPOCH":"2025-08-18T23:16:48.343008","MEAN_MOTION":15.06393418,"ECCENTRICITY":0.0001571,"INCLINATION":53.0551,"RA_OF_ASC_NODE":106.6615,"ARG_OF_PERICENTER":88.716,"MEAN_ANOMALY":271.4009,"EPHEMERIS_TYPE":0,"CLASSIFICATION_TYPE":"U","NORAD_CAT_ID":46157,"ELEMENT_SET_NO":999,"REV_AT_EPOCH":27673,"BSTAR":7.7898e-5,"MEAN_MOTION_DOT":8.79e-6,"MEAN_MOTION_DDOT":0},{"OBJECT_NAME":"STARLINK-1595","OBJECT_ID":"2020-057AU","EPOCH":"2025-08-19T01:45:25.203168","MEAN_MOTION":15.06399509,"ECCENTRICITY":0.0001436,"INCLINATION":53.0534,"RA_OF_ASC_NODE":146.2033,"ARG_OF_PERICENTER":91.8703,"MEAN_ANOMALY":268.245,"EPHEMERIS_TYPE":0,"CLASSIFICATION_TYPE":"U","NORAD_CAT_ID":46159,"ELEMENT_SET_NO":999,"REV_AT_EPOCH":27618,"BSTAR":-1.1193e-5,"MEAN_MOTION_DOT":-4.48e-6,"MEAN_MOTION_DDOT":0},{"OBJECT_NAME":"STARLINK-1598","OBJECT_ID":"2020-057AV","EPOCH":"2025-08-18T23:56:37.177728","MEAN_MOTION":15.06387353,"ECCENTRICITY":0.0001546,"INCLINATION":53.0542,"RA_OF_ASC_NODE":126.5373,"ARG_OF_PERICENTER":95.2849,"MEAN_ANOMALY":264.8316,"EPHEMERIS_TYPE":0,"CLASSIFICATION_TYPE":"U","NORAD_CAT_ID":46160,"ELEMENT_SET_NO":999,"REV_AT_EPOCH":27646,"BSTAR":6.2834e-5,"MEAN_MOTION_DOT":6.54e-6,"MEAN_MOTION_DDOT":0},{"OBJECT_NAME":"STARLINK-1612","OBJECT_ID":"2020-057AZ","EPOCH":"2025-08-19T01:14:46.408992","MEAN_MOTION":15.24717368,"ECCENTRICITY":0.0002691,"INCLINATION":53.0498,"RA_OF_ASC_NODE":100.8166,"ARG_OF_PERICENTER":170.3603,"MEAN_ANOMALY":189.7446,"EPHEMERIS_TYPE":0,"CLASSIFICATION_TYPE":"U","NORAD_CAT_ID":46164,"ELEMENT_SET_NO":999,"REV_AT_EPOCH":27682,"BSTAR":0.0019549,"MEAN_MOTION_DOT":0.00048996,"MEAN_MOTION_DDOT":0},{"OBJECT_NAME":"STARLINK-1626","OBJECT_ID":"2020-057BC","EPOCH":"2025-08-19T00:57:39.225312","MEAN_MOTION":15.06392386,"ECCENTRICITY":0.0001561,"INCLINATION":53.0536,"RA_OF_ASC_NODE":146.349,"ARG_OF_PERICENTER":94.7392,"MEAN_ANOMALY":265.3775,"EPHEMERIS_TYPE":0,"CLASSIFICATION_TYPE":"U","NORAD_CAT_ID":46167,"ELEMENT_SET_NO":999,"REV_AT_EPOCH":27618,"BSTAR":2.8785e-5,"MEAN_MOTION_DOT":1.47e-6,"MEAN_MOTION_DDOT":0},{"OBJECT_NAME":"STARLINK-1627","OBJECT_ID":"2020-057BD","EPOCH":"2025-08-18T22:51:36.589248","MEAN_MOTION":15.06398506,"ECCENTRICITY":0.0001397,"INCLINATION":53.0546,"RA_OF_ASC_NODE":96.827,"ARG_OF_PERICENTER":88.8475,"MEAN_ANOMALY":271.2674,"EPHEMERIS_TYPE":0,"CLASSIFICATION_TYPE":"U","NORAD_CAT_ID":46168,"ELEMENT_SET_NO":999,"REV_AT_EPOCH":27620,"BSTAR":0.00010185,"MEAN_MOTION_DOT":1.236e-5,"MEAN_MOTION_DDOT":0},{"OBJECT_NAME":"STARLINK-1628","OBJECT_ID":"2020-057BE","EPOCH":"2025-08-18T23:25:09.313536","MEAN_MOTION":15.67558178,"ECCENTRICITY":0.000163,"INCLINATION":53.0437,"RA_OF_ASC_NODE":66.7319,"ARG_OF_PERICENTER":301.9903,"MEAN_ANOMALY":58.0954,"EPHEMERIS_TYPE":0,"CLASSIFICATION_TYPE":"U","NORAD_CAT_ID":46169,"ELEMENT_SET_NO":999,"REV_AT_EPOCH":27720,"BSTAR":0.00074941,"MEAN_MOTION_DOT":0.00083389,"MEAN_MOTION_DDOT":0},{"OBJECT_NAME":"STARLINK-1633","OBJECT_ID":"2020-057BG","EPOCH":"2025-08-18T21:12:05.311584","MEAN_MOTION":15.06401844,"ECCENTRICITY":0.0001602,"INCLINATION":53.0533,"RA_OF_ASC_NODE":127.0506,"ARG_OF_PERICENTER":99.6111,"MEAN_ANOMALY":260.5059,"EPHEMERIS_TYPE":0,"CLASSIFICATION_TYPE":"U","NORAD_CAT_ID":46171,"ELEMENT_SET_NO":999,"REV_AT_EPOCH":27703,"BSTAR":0.00053283,"MEAN_MOTION_DOT":7.664e-5,"MEAN_MOTION_DDOT":0}]
